format  = 'OEF2.0'       ! file format
rectype = 'ML'           ! record type (1L/ML)
refsys  = ECLM J2000     ! default reference system
END_OF_HEADER
137295
! Equinoctial elements: a, e*sin(LP), e*cos(LP), tan(i/2)*sin(LN), tan(i/2)*cos(LN), mean long.
 EQU   4.7607878195927341E+01   0.118837155832660   0.267884947451556    0.008310917431636   -0.110841474725448  17.7277980686155
 MJD     54630.645481737 TDT
 MAG   7.303  0.150
! Non-grav parameters: model used, actual number in use, dimension
 LSP   0  0    6
! RMS    1.09546E-02   5.12708E-05   1.31546E-04   3.13006E-07   1.27966E-06   2.49581E-03
! EIG   9.65313E-08   1.69360E-07   1.08897E-06   1.30312E-06   4.61420E-05   1.09555E-02
! WEA   0.99992   0.00417   0.01199   0.00000  -0.00001   0.00171
 COV   1.200030978211489E-04  5.001675487473193E-07  1.439323075614640E-06
 COV   9.198161456385692E-11 -1.118555442682716E-09  1.178055922207077E-05
 COV   2.628690088226789E-09  5.851873638054031E-09  3.384537746541448E-13
 COV  -4.511229207646501E-12  1.016279399350618E-07  1.730439461603806E-08
 COV   1.105075213048876E-12 -1.348228066297608E-11  1.270574024104659E-07
 COV   9.797280151421327E-14  3.319301830768484E-13  4.203076835921986E-12
 COV   1.637527065728874E-12 -9.743989066286201E-11  6.229050599012470E-06
 NOR   1.357286032054402E+08  2.867520864010883E+09 -1.179754508076645E+10
 NOR  -2.209626413240502E+09  1.888585540189606E+08 -6.283236228871088E+07
 NOR   7.264213780571689E+13 -1.889165759678836E+13 -4.292313202995136E+12
 NOR  -5.061142531584893E+11 -8.052524330349014E+11  5.813776458428313E+12
 NOR   1.274862048396758E+12  1.166545617623749E+11  2.119463591594621E+11
 NOR   3.380789098983882E+13 -6.830172295005340E+12  4.807494974236797E+10
 NOR   2.020990296728919E+12  5.556913723125968E+09  8.933677923255495E+09
